start=new Date('2021-10-02T00:00:00.000Z').valueOf();
sats=[{"RCS_SIZE":"LARGE","CLASSIFICATION_TYPE":"U","GP_ID":"185961989","NORAD_CAT_ID":"47175","REF_FRAME":"TEME","MEAN_MOTION":"15.06404078","ECCENTRICITY":"0.00014700","TLE_LINE2":"2 47175  53.0569 354.4939 0001470  89.4229 270.6929 15.06404078 47930","SITE":"AFETR","LAUNCH_DATE":"2020-11-25","MEAN_MOTION_DOT":"0.00000920","CENTER_NAME":"EARTH","OBJECT_NAME":"STARLINK-1895","EPOCH":"2021-10-01T14:16:49.327968","ELEMENT_SET_NO":"999","APOAPSIS":"548.219","EPHEMERIS_TYPE":"0","TLE_LINE1":"1 47175U 20088BF  21274.59501537  .00000920  00000-0  80641-4 0  9997","INCLINATION":"53.0569","BSTAR":"0.00008064100000","DECAY_DATE":null,"TIME_SYSTEM":"UTC","MEAN_MOTION_DDOT":"0.0000000000000","COUNTRY_CODE":"US","PERIOD":"95.592","REV_AT_EPOCH":"4793","SEMIMAJOR_AXIS":"6925.336","OBJECT_ID":"2020-088BF","ARG_OF_PERICENTER":"89.4229","RA_OF_ASC_NODE":"354.4939","PERIAPSIS":"546.183","FILE":"3139397","MEAN_ELEMENT_THEORY":"SGP4","MEAN_ANOMALY":"270.6929","OBJECT_TYPE":"PAYLOAD"},{"OBJECT_TYPE":"PAYLOAD","MEAN_ANOMALY":"242.2020","FILE":"3138560","MEAN_ELEMENT_THEORY":"SGP4","REV_AT_EPOCH":"4807","ARG_OF_PERICENTER":"117.9106","SEMIMAJOR_AXIS":"6925.378","OBJECT_ID":"2020-088BH","PERIOD":"95.593","MEAN_MOTION_DDOT":"0.0000000000000","COUNTRY_CODE":"US","PERIAPSIS":"546.306","RA_OF_ASC_NODE":"4.8870","APOAPSIS":"548.181","OBJECT_NAME":"STARLINK-1907","ELEMENT_SET_NO":"999","EPOCH":"2021-10-01T12:18:44.510688","BSTAR":"0.00001882600000","TIME_SYSTEM":"UTC","DECAY_DATE":null,"EPHEMERIS_TYPE":"0","INCLINATION":"53.0585","TLE_LINE1":"1 47177U 20088BH  21274.51301517 -.00000001  00000-0  18826-4 0  9994","MEAN_MOTION":"15.06390317","REF_FRAME":"TEME","RCS_SIZE":"LARGE","GP_ID":"185897634","NORAD_CAT_ID":"47177","CLASSIFICATION_TYPE":"U","SITE":"AFETR","CENTER_NAME":"EARTH","MEAN_MOTION_DOT":"-0.00000001","LAUNCH_DATE":"2020-11-25","ECCENTRICITY":"0.00013540","TLE_LINE2":"2 47177  53.0585   4.8870 0001354 117.9106 242.2020 15.06390317 48075"},{"APOAPSIS":"548.124","EPOCH":"2021-10-01T15:01:55.792416","ELEMENT_SET_NO":"999","OBJECT_NAME":"STARLINK-1912","DECAY_DATE":null,"TIME_SYSTEM":"UTC","BSTAR":"0.00007335000000","INCLINATION":"53.0563","TLE_LINE1":"1 47178U 20088BJ  21274.62634019  .00000812  00000-0  73350-4 0  9995","EPHEMERIS_TYPE":"0","MEAN_MOTION":"15.06409640","REF_FRAME":"TEME","CLASSIFICATION_TYPE":"U","NORAD_CAT_ID":"47178","GP_ID":"185961492","RCS_SIZE":"LARGE","LAUNCH_DATE":"2020-11-25","MEAN_MOTION_DOT":"0.00000812","CENTER_NAME":"EARTH","SITE":"AFETR","TLE_LINE2":"2 47178  53.0563  14.3555 0001357  90.5596 269.5549 15.06409640 47651","ECCENTRICITY":"0.00013570","OBJECT_TYPE":"PAYLOAD","MEAN_ANOMALY":"269.5549","MEAN_ELEMENT_THEORY":"SGP4","FILE":"3139397","SEMIMAJOR_AXIS":"6925.319","OBJECT_ID":"2020-088BJ","ARG_OF_PERICENTER":"90.5596","REV_AT_EPOCH":"4765","COUNTRY_CODE":"US","MEAN_MOTION_DDOT":"0.0000000000000","PERIOD":"95.592","PERIAPSIS":"546.244","RA_OF_ASC_NODE":"14.3555"},{"SITE":"AFETR","LAUNCH_DATE":"2020-11-25","CENTER_NAME":"EARTH","MEAN_MOTION_DOT":"0.00000739","ECCENTRICITY":"0.00011140","TLE_LINE2":"2 47179  53.0548  24.4214 0001114  95.7441 264.3675 15.06409894 47515","MEAN_MOTION":"15.06409894","REF_FRAME":"TEME","RCS_SIZE":"LARGE","CLASSIFICATION_TYPE":"U","GP_ID":"185961736","NORAD_CAT_ID":"47179","BSTAR":"0.00006844800000","DECAY_DATE":null,"TIME_SYSTEM":"UTC","EPHEMERIS_TYPE":"0","TLE_LINE1":"1 47179U 20088BK  21274.61436484  .00000739  00000-0  68448-4 0  9991","INCLINATION":"53.0548","APOAPSIS":"547.955","OBJECT_NAME":"STARLINK-1913","ELEMENT_SET_NO":"999","EPOCH":"2021-10-01T14:44:41.122176","PERIAPSIS":"546.412","RA_OF_ASC_NODE":"24.4214","REV_AT_EPOCH":"4751","SEMIMAJOR_AXIS":"6925.318","OBJECT_ID":"2020-088BK","ARG_OF_PERICENTER":"95.7441","MEAN_MOTION_DDOT":"0.0000000000000","COUNTRY_CODE":"US","PERIOD":"95.592","OBJECT_TYPE":"PAYLOAD","MEAN_ANOMALY":"264.3675","FILE":"3139397","MEAN_ELEMENT_THEORY":"SGP4"},{"APOAPSIS":"361.869","OBJECT_NAME":"STARLINK-1914","EPOCH":"2021-10-01T18:30:35.764128","ELEMENT_SET_NO":"999","BSTAR":"0.00219800000000","DECAY_DATE":null,"TIME_SYSTEM":"UTC","EPHEMERIS_TYPE":"0","TLE_LINE1":"1 47180U 20088BL  21274.77124727  .00271997  00000-0  21980-2 0  9998","INCLINATION":"53.0527","MEAN_MOTION":"15.69476307","REF_FRAME":"TEME","RCS_SIZE":"LARGE","CLASSIFICATION_TYPE":"U","NORAD_CAT_ID":"47180","GP_ID":"185962490","SITE":"AFETR","LAUNCH_DATE":"2020-11-25","CENTER_NAME":"EARTH","MEAN_MOTION_DOT":"0.00271997","TLE_LINE2":"2 47180  53.0527   7.7191 0002183   5.9979 354.1063 15.69476307 47766","ECCENTRICITY":"0.00021830","MEAN_ANOMALY":"354.1063","OBJECT_TYPE":"PAYLOAD","FILE":"3139397","MEAN_ELEMENT_THEORY":"SGP4","REV_AT_EPOCH":"4776","SEMIMAJOR_AXIS":"6738.533","OBJECT_ID":"2020-088BL","ARG_OF_PERICENTER":"5.9979","MEAN_MOTION_DDOT":"0.0000000000000","COUNTRY_CODE":"US","PERIOD":"91.750","PERIAPSIS":"358.927","RA_OF_ASC_NODE":"7.7191"},{"REF_FRAME":"TEME","MEAN_MOTION":"15.06392474","GP_ID":"185960742","NORAD_CAT_ID":"47181","CLASSIFICATION_TYPE":"U","RCS_SIZE":"LARGE","MEAN_MOTION_DOT":"-0.00001315","CENTER_NAME":"EARTH","LAUNCH_DATE":"2020-11-25","SITE":"AFETR","TLE_LINE2":"2 47181  53.0570 354.5353 0001398 109.3954 250.7187 15.06392474 47937","ECCENTRICITY":"0.00013980","APOAPSIS":"548.205","EPOCH":"2021-10-01T14:06:13.665024","ELEMENT_SET_NO":"999","OBJECT_NAME":"STARLINK-1927","TIME_SYSTEM":"UTC","DECAY_DATE":null,"BSTAR":"-0.00006941900000","INCLINATION":"53.0570","TLE_LINE1":"1 47181U 20088BM  21274.58765816 -.00001315  00000-0 -69419-4 0  9996","EPHEMERIS_TYPE":"0","ARG_OF_PERICENTER":"109.3954","SEMIMAJOR_AXIS":"6925.372","OBJECT_ID":"2020-088BM","REV_AT_EPOCH":"4793","PERIOD":"95.593","MEAN_MOTION_DDOT":"0.0000000000000","COUNTRY_CODE":"US","PERIAPSIS":"546.268","RA_OF_ASC_NODE":"354.5353","MEAN_ANOMALY":"250.7187","OBJECT_TYPE":"PAYLOAD","MEAN_ELEMENT_THEORY":"SGP4","FILE":"3139397"},{"FILE":"3139397","MEAN_ELEMENT_THEORY":"SGP4","OBJECT_TYPE":"PAYLOAD","MEAN_ANOMALY":"296.5369","COUNTRY_CODE":"US","MEAN_MOTION_DDOT":"0.0000000000000","PERIOD":"92.034","REV_AT_EPOCH":"3902","OBJECT_ID":"2021-005A","SEMIMAJOR_AXIS":"6752.436","ARG_OF_PERICENTER":"63.5783","RA_OF_ASC_NODE":"124.4707","PERIAPSIS":"373.394","OBJECT_NAME":"STARLINK-1952","EPOCH":"2021-10-01T20:32:00.401280","ELEMENT_SET_NO":"999","APOAPSIS":"375.207","EPHEMERIS_TYPE":"0","TLE_LINE1":"1 47349U 21005A   21274.85556020  .01577690  00000-0  14195-1 0  9998","INCLINATION":"53.0509","BSTAR":"0.01419500000000","DECAY_DATE":null,"TIME_SYSTEM":"UTC","RCS_SIZE":"LARGE","CLASSIFICATION_TYPE":"U","GP_ID":"185960760","NORAD_CAT_ID":"47349","REF_FRAME":"TEME","MEAN_MOTION":"15.64631580","ECCENTRICITY":"0.00013420","TLE_LINE2":"2 47349  53.0509 124.4707 0001342  63.5783 296.5369 15.64631580 39021","SITE":"AFETR","LAUNCH_DATE":"2021-01-20","CENTER_NAME":"EARTH","MEAN_MOTION_DOT":"0.01577690"},{"FILE":"3139397","MEAN_ELEMENT_THEORY":"SGP4","MEAN_ANOMALY":"267.6990","OBJECT_TYPE":"PAYLOAD","RA_OF_ASC_NODE":"133.2283","PERIAPSIS":"546.066","COUNTRY_CODE":"US","MEAN_MOTION_DDOT":"0.0000000000000","PERIOD":"95.592","REV_AT_EPOCH":"3890","SEMIMAJOR_AXIS":"6925.347","OBJECT_ID":"2021-005B","ARG_OF_PERICENTER":"92.4188","EPHEMERIS_TYPE":"0","INCLINATION":"53.0553","TLE_LINE1":"1 47350U 21005B   21274.89173476  .00001394  00000-0  11246-3 0  9992","BSTAR":"0.00011246000000","DECAY_DATE":null,"TIME_SYSTEM":"UTC","OBJECT_NAME":"STARLINK-2011","ELEMENT_SET_NO":"999","EPOCH":"2021-10-01T21:24:05.883264","APOAPSIS":"548.357","TLE_LINE2":"2 47350  53.0553 133.2283 0001654  92.4188 267.6990 15.06400596 38907","ECCENTRICITY":"0.00016540","SITE":"AFETR","LAUNCH_DATE":"2021-01-20","CENTER_NAME":"EARTH","MEAN_MOTION_DOT":"0.00001394","RCS_SIZE":"LARGE","CLASSIFICATION_TYPE":"U","GP_ID":"185961010","NORAD_CAT_ID":"47350","MEAN_MOTION":"15.06400596","REF_FRAME":"TEME"},{"TLE_LINE1":"1 47351U 21005C   21274.78854198 -.00000604  00000-0 -21598-4 0  9995","INCLINATION":"53.0519","EPHEMERIS_TYPE":"0","DECAY_DATE":null,"TIME_SYSTEM":"UTC","BSTAR":"-0.00002159800000","ELEMENT_SET_NO":"999","EPOCH":"2021-10-01T18:55:30.027072","OBJECT_NAME":"STARLINK-2017","APOAPSIS":"548.981","TLE_LINE2":"2 47351  53.0519  93.6391 0002512  77.2618 282.8652 15.06390778 39446","ECCENTRICITY":"0.00025120","LAUNCH_DATE":"2021-01-20","CENTER_NAME":"EARTH","MEAN_MOTION_DOT":"-0.00000604","SITE":"AFETR","CLASSIFICATION_TYPE":"U","GP_ID":"185962255","NORAD_CAT_ID":"47351","RCS_SIZE":"LARGE","MEAN_MOTION":"15.06390778","REF_FRAME":"TEME","MEAN_ELEMENT_THEORY":"SGP4","FILE":"3139397","OBJECT_TYPE":"PAYLOAD","MEAN_ANOMALY":"282.8652","RA_OF_ASC_NODE":"93.6391","PERIAPSIS":"545.502","COUNTRY_CODE":"US","MEAN_MOTION_DDOT":"0.0000000000000","PERIOD":"95.593","OBJECT_ID":"2021-005C","SEMIMAJOR_AXIS":"6925.377","ARG_OF_PERICENTER":"77.2618","REV_AT_EPOCH":"3944"},{"PERIAPSIS":"545.610","RA_OF_ASC_NODE":"133.2512","REV_AT_EPOCH":"3889","ARG_OF_PERICENTER":"85.8713","SEMIMAJOR_AXIS":"6925.326","OBJECT_ID":"2021-005D","PERIOD":"95.592","MEAN_MOTION_DDOT":"0.0000000000000","COUNTRY_CODE":"US","MEAN_ANOMALY":"274.2537","OBJECT_TYPE":"PAYLOAD","FILE":"3139397","MEAN_ELEMENT_THEORY":"SGP4","SITE":"AFETR","MEAN_MOTION_DOT":"0.00002309","CENTER_NAME":"EARTH","LAUNCH_DATE":"2021-01-20","ECCENTRICITY":"0.00022830","TLE_LINE2":"2 47352  53.0544 133.2512 0002283  85.8713 274.2537 15.06407430 38896","MEAN_MOTION":"15.06407430","REF_FRAME":"TEME","RCS_SIZE":"LARGE","NORAD_CAT_ID":"47352","GP_ID":"185962008","CLASSIFICATION_TYPE":"U","BSTAR":"0.00017381000000","TIME_SYSTEM":"UTC","DECAY_DATE":null,"EPHEMERIS_TYPE":"0","TLE_LINE1":"1 47352U 21005D   21274.87329851  .00002309  00000-0  17381-3 0  9995","INCLINATION":"53.0544","APOAPSIS":"548.772","OBJECT_NAME":"STARLINK-2034","ELEMENT_SET_NO":"999","EPOCH":"2021-10-01T20:57:32.991264"}];
